ONEWEB-0201             
1 48241U 21031AH  23242.93441798  .00000065  00000+0  14056-3 0  9993
2 48241  87.9028 133.0171 0001909  74.1807 285.9533 13.14499568114211
ONEWEB-0207             
1 48242U 21031AJ  23244.05080571  .00000088  00000+0  20345-3 0  9990
2 48242  87.9025 132.7630 0001693  70.6743 289.4570 13.14499669114273
ONEWEB-0208             
1 48243U 21031AK  23243.64802005 -.00002682  00000+0 -72688-2 0  9999
2 48243  87.9022 132.8607 0002620  67.5897 292.5510 13.14517446114231
ONEWEB-0200             
1 48244U 21031AL  23243.61209784 -.00002764  00000+0 -74916-2 0  9999
2 48244  87.9022 132.8548 0002055  70.6786 289.4565 13.14516108114150
ONEWEB-0217             
1 48245U 21031AM  23243.09618656 -.00000021  00000+0 -89961-4 0  9996
2 48245  87.9028 132.9417 0002307  74.0150 286.1234 13.14500945114032
ONEWEB-0211             
1 48767U 21045A   23244.01492468 -.00000044  00000+0 -15059-3 0  9995
2 48767  87.8966 102.3266 0001909  81.9007 278.2339 13.15550376111410
ONEWEB-0223             
1 48768U 21045B   23244.03605936  .00000012  00000+0 -24296-5 0  9993
2 48768  87.8958 102.3264 0002201  86.8025 273.3357 13.15548788111410
ONEWEB-0230             
1 48769U 21045C   23242.86773131 -.00000111  00000+0 -32986-3 0  9990
2 48769  87.8979 102.6222 0001872  83.4627 276.6716 13.15551593111496
ONEWEB-0237             
1 48770U 21045D   23243.00927327  .00000036  00000+0  60322-4 0  9997
2 48770  87.8965 102.5132 0002117  96.1711 263.9660 13.15546103110127
ONEWEB-0235             
1 48771U 21045E   23244.04662747  .00000131  00000+0  31423-3 0  9990
2 48771  87.8960 102.3384 0002332 101.9811 258.1581 13.15548106111376
ONEWEB-0242             
1 48772U 21045F   23244.04026826 -.00005809  00000+0 -15471-1 0  9995
2 48772  87.8995 102.3426 0001353 107.8150 252.3128 13.15566256111420
ONEWEB-0241             
1 48773U 21045G   23243.03887669 -.00000922  00000+0 -24835-2 0  9990
2 48773  87.8970 102.5497 0002511  83.2703 276.8713 13.15542843110079
ONEWEB-0243             
1 48774U 21045H   23242.84239024  .00000195  00000+0  48322-3 0  9993
2 48774  87.8962 102.5469 0001962  98.9360 261.1993 13.15548572110073
ONEWEB-0222             
1 48775U 21045J   23242.67970185  .00000209  00000+0  52114-3 0  9995
2 48775  87.8961 102.6163 0002111  87.1712 272.9660 13.15547493110097
ONEWEB-0244             
1 48776U 21045K   23243.00506979  .00000006  00000+0 -18035-4 0  9991
2 48776  87.8961 102.5354 0001679  92.1940 267.9383 13.15544751110704
ONEWEB-0247             
1 48777U 21045L   23243.00084427  .00000136  00000+0  32797-3 0  9994
2 48777  87.8975 102.5464 0002192  97.6944 262.4435 13.15547944110140
ONEWEB-0245             
1 48778U 21045M   23242.84450445  .00001064  00000+0  27908-2 0  9991
2 48778  87.8963 102.5940 0002457  78.3696 281.7710 13.15549618110095
ONEWEB-0229             
1 48779U 21045N   23242.91421784  .00000162  00000+0  39702-3 0  9998
2 48779  87.8963 102.5693 0001744  91.9655 268.1675 13.15546839110131
ONEWEB-0228             
1 48780U 21045P   23242.85190363  .00000053  00000+0  10698-3 0  9991
2 48780  87.8962 102.5630 0001782  87.6329 272.5005 13.15547516110044
ONEWEB-0232             
1 48781U 21045Q   23243.91134034  .00004961  00000+0  13119-1 0  9994
2 48781  87.8926 102.4434 0002159 149.7076 210.4180 13.15634340111626
ONEWEB-0231             
1 48782U 21045R   23244.04240958 -.00008588  00000+0 -22867-1 0  9994
2 48782  87.8971 102.3557 0001744 119.8785 240.2519 13.15551083111355
ONEWEB-0234             
1 48783U 21045S   23243.00293190 -.00003710  00000+0 -98908-2 0  9998
2 48783  87.8963 102.5394 0002484  80.4820 279.6591 13.15569160110218
ONEWEB-0238             
1 48784U 21045T   23244.00329569 -.00000200  00000+0 -56430-3 0  9996
2 48784  87.8961 102.3499 0001901  78.0467 282.0876 13.15547664111371
ONEWEB-0240             
1 48785U 21045U   23244.02549941 -.00000078  00000+0 -24204-3 0  9994
2 48785  87.8960 102.3200 0002299  84.9188 275.2204 13.15549839111395
ONEWEB-0246             
1 48786U 21045V   23243.03252749 -.00000040  00000+0 -14016-3 0  9991
2 48786  87.8962 102.5193 0002082  94.1865 265.9503 13.15545936110016
ONEWEB-0210             
1 48787U 21045W   23243.99592417  .00002932  00000+0  77524-2 0  9998
2 48787  87.8966 102.3353 0001900 113.9250 246.2080 13.15534694111318
ONEWEB-0214             
1 48788U 21045X   23244.00647718  .00000006  00000+0 -18744-4 0  9999
2 48788  87.8962 102.3229 0001659 111.4256 248.7051 13.15551242111275
ONEWEB-0221             
1 48789U 21045Y   23244.01280607 -.00000451  00000+0 -12313-2 0  9990
2 48789  87.8965 102.3322 0002085  86.5050 273.6318 13.15547289111382
ONEWEB-0213             
1 48790U 21045Z   23244.00014457  .00001161  00000+0  30494-2 0  9996
2 48790  87.8959 102.3520 0002523 100.4521 259.6894 13.15545127111431
ONEWEB-0212             
1 48791U 21045AA  23242.84026622  .00000156  00000+0  38035-3 0  9997
2 48791  87.8965 102.5642 0001711  75.0663 285.0656 13.15550499110142
ONEWEB-0227             
1 48792U 21045AB  23242.68180002  .00000208  00000+0  51810-3 0  9997
2 48792  87.8966 102.6100 0001979  82.1987 277.9367 13.15550813110079
ONEWEB-0226             
1 48793U 21045AC  23244.04452713 -.00009513  00000+0 -25328-1 0  9994
2 48793  87.8967 102.3555 0002068 125.4146 234.7178 13.15549607111341
ONEWEB-0224             
1 48794U 21045AD  23244.01070979 -.00000029  00000+0 -11204-3 0  9995
2 48794  87.8974 102.3545 0002225  68.7722 291.3646 13.15548313111266
ONEWEB-0233             
1 48795U 21045AE  23244.00422089  .00000057  00000+0  11756-3 0  9999
2 48795  87.8915 102.4339 0001916  81.3174 278.8173 13.15545817111274
ONEWEB-0190             
1 48796U 21045AF  23243.01349868  .00000001  00000+0 -31728-4 0  9995
2 48796  87.8960 102.5497 0002636 105.2583 254.8839 13.15546145110100
ONEWEB-0236             
1 48797U 21045AG  23243.03041492 -.00001966  00000+0 -52561-2 0  9998
2 48797  87.8959 102.5185 0001846  80.1453 279.9885 13.15559635109994
ONEWEB-0248             
1 48798U 21045AH  23244.03182763 -.00003107  00000+0 -82872-2 0  9994
2 48798  87.8972 102.3402 0003360  89.2176 270.9340 13.15574934111400
ONEWEB-0225             
1 48799U 21045AJ  23242.91209506 -.00000283  00000+0 -78532-3 0  9996
2 48799  87.8957 102.5691 0002911  96.6094 263.5367 13.15551083110145
ONEWEB-0215             
1 48800U 21045AK  23244.02337601 -.00000059  00000+0 -19173-3 0  9998
2 48800  87.8960 102.3242 0002745  93.5856 266.5588 13.15549862111285
ONEWEB-0216             
1 48801U 21045AL  23243.04520096  .00000096  00000+0  22071-3 0  9992
2 48801  87.8961 102.5571 0001600  95.6129 264.5184 13.15545857110042
ONEWEB-0239             
1 48802U 21045AM  23244.03815273 -.00000998  00000+0 -26844-2 0  9991
2 48802  87.8968 102.3154 0002440  88.0542 272.0867 13.15552148111351
ONEWEB-0249             
1 48967U 21060A   23243.48892545  .00000009  00000+0 -89290-5 0  9994
2 48967  87.9080  71.9331 0001749  89.0665 271.0666 13.16594293105307
ONEWEB-0250             
1 48968U 21060B   23243.49316912  .00000011  00000+0 -46026-5 0  9998
2 48968  87.8970  71.9275 0002108  90.1494 269.9879 13.16594314105288
ONEWEB-0252             
1 48970U 21060D   23243.97659167  .00000142  00000+0  33849-3 0  9997
2 48970  87.8978  71.8376 0001660  94.2523 265.8798 13.16594087106700
ONEWEB-0253             
1 48971U 21060E   23243.51003917  .00000077  00000+0  16874-3 0  9990
2 48971  87.8989  72.0074 0001995  98.5023 261.6334 13.16594673105287
ONEWEB-0254             
1 48972U 21060F   23243.97447912  .00000160  00000+0  38608-3 0  9990
2 48972  87.8979  71.8272 0002033  94.5420 265.5943 13.16594396106625
ONEWEB-0255             
1 48973U 21060G   23243.48047649 -.00000028  00000+0 -10802-3 0  9991
2 48973  87.8967  71.9626 0001828  88.1187 272.0153 13.16595997105350
ONEWEB-0256             
1 48974U 21060H   23243.50582367  .00000096  00000+0  21855-3 0  9999
2 48974  87.8984  71.9617 0001436  92.2031 267.9265 13.16591241105321
ONEWEB-0257             
1 48975U 21060J   23243.23561812 -.00000013  00000+0 -67196-4 0  9992
2 48975  87.8963  71.9872 0001698  96.0067 264.1257 13.16592671105242
ONEWEB-0258             
1 48976U 21060K   23243.84570025  .00000091  00000+0  20454-3 0  9995
2 48976  87.8971  71.8933 0001925  86.6265 273.5086 13.16597415105332
ONEWEB-0259             
1 48977U 21060L   23243.23139872 -.00000035  00000+0 -12540-3 0  9997
2 48977  87.8973  72.0007 0002150  86.5621 273.5756 13.16592163105289
ONEWEB-0260             
1 48978U 21060M   23243.45304499 -.00000253  00000+0 -69629-3 0  9993
2 48978  87.8993  71.9853 0001351 118.7055 241.4211 13.16597043105293
ONEWEB-0261             
1 48979U 21060N   23243.49526430  .00002188  00000+0  56862-2 0  9990
2 48979  87.9076  71.9373 0001846  94.2135 265.9207 13.16609150105356
ONEWEB-0262             
1 48980U 21060P   23243.47625888 -.00000017  00000+0 -79215-4 0  9997
2 48980  87.8980  71.9382 0002372  88.5039 271.6364 13.16590727105318
ONEWEB-0263             
1 48981U 21060Q   23243.50793659  .00000169  00000+0  40947-3 0  9999
2 48981  87.8984  71.9483 0002258  96.7700 263.3688 13.16593328105287
ONEWEB-0264             
1 48982U 21060R   23243.92486742 -.00000028  00000+0 -10796-3 0  9993
2 48982  87.8996  71.8644 0001834  89.8027 270.3314 13.16592113106638
ONEWEB-0266             
1 48984U 21060T   23243.49105748  .00000018  00000+0  13011-4 0  9992
2 48984  87.8977  71.9400 0001811  84.5464 275.5873 13.16592389105273
ONEWEB-0267             
1 48985U 21060U   23243.50159171  .00000041  00000+0  74542-4 0  9996
2 48985  87.8976  71.9389 0002024 100.7351 259.4008 13.16592231105280
ONEWEB-0268             
1 48986U 21060V   23243.24196152 -.00000047  00000+0 -15609-3 0  9994
2 48986  87.8979  71.9933 0001655  89.3928 270.7393 13.16590660105513
